{
    "links": {
        "self": "http://www.neowsapp.com/rest/v1/neo/3736500?api_key=iIulBulltgU6a56xZRHN4H3l9WmuAYTsLGpBGhQ2"
    },
    "id": "3736500",
    "neo_reference_id": "3736500",
    "name": "(2015 XH261)",
    "designation": "2015 XH261",
    "nasa_jpl_url": "http://ssd.jpl.nasa.gov/sbdb.cgi?sstr=3736500",
    "absolute_magnitude_h": 24.6,
    "estimated_diameter": {
        "kilometers": {
            "estimated_diameter_min": 0.0319561887,
            "estimated_diameter_max": 0.0714562102
        },
        "meters": {
            "estimated_diameter_min": 31.9561886721,
            "estimated_diameter_max": 71.4562101727
        },
        "miles": {
            "estimated_diameter_min": 0.0198566489,
            "estimated_diameter_max": 0.0444008168
        },
        "feet": {
            "estimated_diameter_min": 104.8431420431,
            "estimated_diameter_max": 234.436392583
        }
    },
    "is_potentially_hazardous_asteroid": false,
    "close_approach_data": [
        {
            "close_approach_date": "2015-11-24",
            "close_approach_date_full": "2015-Nov-24 14:43",
            "epoch_date_close_approach": 1448376180000,
            "relative_velocity": {
                "kilometers_per_second": "12.2578616124",
                "kilometers_per_hour": "44128.3018047415",
                "miles_per_hour": "27419.6106408406"
            },
            "miss_distance": {
                "astronomical": "0.0231122222",
                "lunar": "8.9906544358",
                "kilometers": "3457539.212086714",
                "miles": "2148415.2430520932"
            },
            "orbiting_body": "Earth"
        }
    ],
    "orbital_data": {
        "orbit_id": "4",
        "orbit_determination_date": "2017-04-06 08:29:57",
        "first_observation_date": "2015-12-09",
        "last_observation_date": "2015-12-14",
        "data_arc_in_days": 5,
        "observations_used": 33,
        "orbit_uncertainty": "9",
        "minimum_orbit_intersection": ".0230672",
        "jupiter_tisserand_invariant": "3.644",
        "epoch_osculation": "2457366.5",
        "eccentricity": ".5589373351973647",
        "semi_major_axis": "1.983646484136795",
        "inclination": "4.44409512497174",
        "ascending_node_longitude": "78.64948537770326",
        "orbital_period": "1020.457312532591",
        "perihelion_distance": ".8749124043197535",
        "perihelion_argument": "294.9591216274134",
        "aphelion_distance": "3.092380563953837",
        "perihelion_time": "2457316.256255106250",
        "mean_anomaly": "17.72513944445111",
        "mean_motion": ".3527830077541851",
        "equinox": "J2000",
        "orbit_class": {
            "orbit_class_type": "APO",
            "orbit_class_description": "Near-Earth asteroid orbits which cross the Earth’s orbit similar to that of 1862 Apollo",
            "orbit_class_range": "a (semi-major axis) > 1.0 AU; q (perihelion) < 1.017 AU"
        }
    },
    "is_sentry_object": false
}